#aV2006  3 21  0  0   .00000000      96 DD+AD WGS84 FIT  NGA
## 1367 172800.00000000   900.00000000 53815  .0000000000000
+   29     1  2  3  4  5  6  7  8  9 10 11 13 14 15 16 17 18
+         19 20 21 22 23 24 25 26 27 28 29 30  0  0  0  0  0
+          0  0  0  0  0  0  0  0  0  0  0  0  0  0  0  0  0
+          0  0  0  0  0  0  0  0  0  0  0  0  0  0  0  0  0
+          0  0  0  0  0  0  0  0  0  0  0  0  0  0  0  0  0
++         0  0  0  0  0  0  0  0  0  0  0  0  0  0  0  0  0
++         0  0  0  0  0  0  0  0  0  0  0  0  0  0  0  0  0
++         0  0  0  0  0  0  0  0  0  0  0  0  0  0  0  0  0
++         0  0  0  0  0  0  0  0  0  0  0  0  0  0  0  0  0
++         0  0  0  0  0  0  0  0  0  0  0  0  0  0  0  0  0
%c cc cc ccc ccc cccc cccc cccc cccc ccccc ccccc ccccc ccccc
%c cc cc ccc ccc cccc cccc cccc cccc ccccc ccccc ccccc ccccc
%f  0.0000000  0.000000000  0.00000000000  0.000000000000000
%f  0.0000000  0.000000000  0.00000000000  0.000000000000000
%i    0    0    0    0      0      0      0      0         0
%i    0    0    0    0      0      0      0      0         0
/*      NGA, ST. LOUIS,MO.                                  
/*   EPHEMERIS COMPUTED FROM  3 DAYS OF DATA                
/* CCCCCCCCCCCCCCCCCCCCCCCCCCCCCCCCCCCCCCCCCCCCCCCCCCCCCCCCC
/* CCCCCCCCCCCCCCCCCCCCCCCCCCCCCCCCCCCCCCCCCCCCCCCCCCCCCCCCC
*  2006  3 21 12  0   .00000000                                                 
P  1  20359.547170  15996.291578   6216.310047     42.603889                    
V  1  -7537.727000  -2091.243005  31012.847106       .019236                    
P  2 -12754.537109 -16808.151950 -16514.183749    -13.404657                    
V  2    704.720654 -20491.146343  20469.791771       .019024                    
P  3  24073.899735  11414.707866  -2261.732634     83.629450                    
V  3  -3812.214116   2354.381156 -30612.785845       .029968                    
P  4  -7056.717589 -23915.001469  -8649.322182    183.054642                    
V  4   2761.776262 -11165.732755  29081.712101       .106967                    
P  5 -22541.620465  12902.827024   4913.906590   -310.873787                    
V  5   2945.326847  -6863.369896  30503.203293       .759298                    
P  6 -12012.560433  11251.094531 -20665.240863    418.156223                    
V  6 -23901.753550 -12085.553704   7167.691912       .277239                    
P  7  -8333.056517  13334.346915 -21105.196133    516.856149                    
V  7 -25248.412223 -11277.532442   2640.279322       .061181                    
P  8   -111.539481 -26337.679102   -385.835583    -60.119591                    
V  8   2817.295697    281.457021 -32261.275507      -.011811                    
P  9 -14382.476037   5291.282722  21127.751627     12.755820                    
V  9  -3220.452538 -27965.119487   4975.807537       .015985                    
P 10 -19001.458161  -2988.799039 -18542.088113     80.514302                    
V 10  19125.969445 -13189.687324 -17252.302105       .005709                    
P 11  15145.784764  -7364.314820  20444.625577    315.012570                    
V 11   6060.743382  25739.669122   5013.995685       .026430                    
P 13   9814.005703 -11139.357338 -22096.043027     48.956057                    
V 13  24369.239252  13355.272363   4164.570225       .026077                    
P 14   9033.105551  17825.896351  17585.662634    -17.442818                    
V 14 -20175.995892  -9147.579643  19668.377253       .006725                    
P 15  -1067.735711  26320.117471   -748.759582    583.765794                    
V 15  -3245.606237   -828.106688 -31913.412645       .060426                    
P 16  13804.164779   8506.487143 -20967.964344     32.305359                    
V 16 -22186.071724  15048.946197  -8372.279113       .020227                    
P 17  -7544.142822 -17974.099827  18062.149190     71.362766                    
V 17  21159.911949   8992.317281  17681.869593       .058358                    
P 18 -15132.692822  18375.902189  11560.960796   -226.844470                    
V 18 -13950.336090   5184.426963 -27008.637362      -.019793                    
P 19  23730.345249   4881.901315  11028.996932    -18.163266                    
V 19  10725.768845   9086.367113 -27317.296964       .012775                    
P 20  23263.684195 -12113.452459   3978.133465    -30.219590                    
V 20  -2703.306022   5270.465057  31185.615816       .007402                    
P 21  -6428.619033  23698.423597  -9389.126395     15.138659                    
V 21  -3627.110239 -12124.487131 -28496.025603       .030554                    
P 22  -2155.131442  17547.245753  19975.801607     78.061751                    
V 22 -22239.163493  11570.915277 -12660.729438       .033484                    
P 23  20244.844312  -2979.323059 -17105.032949    146.465577                    
V 23  18491.251899  11012.440251  19922.494430      -.012558                    
P 24   3353.493948 -25790.884380   4917.278859     94.475575                    
V 24   2958.819705   5982.935289  31088.584736       .029838                    
P 25  10497.548666  21957.681887 -10086.198496    -14.249232                    
V 25   -913.611702  13732.536671  27954.110758       .181373                    
P 26 -24585.921781  -8199.553478   6723.158076    -65.265025                    
V 26  -7156.601209  -5434.855428 -30487.852899      -.097946                    
P 27   4121.481808 -23935.620889  -9725.771897     40.802165                    
V 27   4551.615173  12901.276286 -28445.245256       .017143                    
P 28   5129.784797 -18488.182145  18492.710065     31.066958                    
V 28  20393.443171 -10857.415658 -17107.039614      -.007498                    
P 29 -24712.067452  -9557.136321   3587.874636    566.234060                    
V 29  -3005.092104  -3416.311101 -31712.666227       .098309                    
P 30 -19027.702035  17824.204994  -5015.579584     19.973727                    
V 30  -6860.199253    780.405922  30597.880356       .616645                    
EOF
